start=new Date('2021-10-02T00:00:00.000Z').valueOf();
sats=[{"REV_AT_EPOCH":"6370","ARG_OF_PERICENTER":"95.8610","OBJECT_ID":"2020-057AZ","SEMIMAJOR_AXIS":"6925.360","PERIOD":"95.592","MEAN_MOTION_DDOT":"0.0000000000000","COUNTRY_CODE":"US","PERIAPSIS":"546.443","RA_OF_ASC_NODE":"349.4761","MEAN_ANOMALY":"264.2508","OBJECT_TYPE":"PAYLOAD","FILE":"3139397","MEAN_ELEMENT_THEORY":"SGP4","REF_FRAME":"TEME","MEAN_MOTION":"15.06396228","RCS_SIZE":"LARGE","GP_ID":"185961135","NORAD_CAT_ID":"46164","CLASSIFICATION_TYPE":"U","SITE":"AFETR","MEAN_MOTION_DOT":"0.00000602","CENTER_NAME":"EARTH","LAUNCH_DATE":"2020-08-18","ECCENTRICITY":"0.00011290","TLE_LINE2":"2 46164  53.0545 349.4761 0001129  95.8610 264.2508 15.06396228 63706","APOAPSIS":"548.007","OBJECT_NAME":"STARLINK-1612","EPOCH":"2021-10-01T14:30:45.926208","ELEMENT_SET_NO":"999","BSTAR":"0.00005931600000","TIME_SYSTEM":"UTC","DECAY_DATE":null,"EPHEMERIS_TYPE":"0","TLE_LINE1":"1 46164U 20057AZ  21274.60469822  .00000602  00000-0  59316-4 0  9994","INCLINATION":"53.0545"},{"TLE_LINE2":"2 46165  53.0567  28.5305 0001277  92.7143 267.3992 15.06398181 61913","ECCENTRICITY":"0.00012770","MEAN_MOTION_DOT":"-0.00000567","CENTER_NAME":"EARTH","LAUNCH_DATE":"2020-08-18","SITE":"AFETR","GP_ID":"185961385","NORAD_CAT_ID":"46165","CLASSIFICATION_TYPE":"U","RCS_SIZE":"LARGE","REF_FRAME":"TEME","MEAN_MOTION":"15.06398181","TLE_LINE1":"1 46165U 20057BA  21274.81479407 -.00000567  00000-0 -19179-4 0  9993","INCLINATION":"53.0567","EPHEMERIS_TYPE":"0","TIME_SYSTEM":"UTC","DECAY_DATE":null,"BSTAR":"-0.00001917900000","EPOCH":"2021-10-01T19:33:18.207648","ELEMENT_SET_NO":"999","OBJECT_NAME":"STARLINK-1613","APOAPSIS":"548.104","RA_OF_ASC_NODE":"28.5305","PERIAPSIS":"546.335","PERIOD":"95.592","MEAN_MOTION_DDOT":"0.0000000000000","COUNTRY_CODE":"US","ARG_OF_PERICENTER":"92.7143","OBJECT_ID":"2020-057BA","SEMIMAJOR_AXIS":"6925.354","REV_AT_EPOCH":"6191","MEAN_ELEMENT_THEORY":"SGP4","FILE":"3139397","OBJECT_TYPE":"PAYLOAD","MEAN_ANOMALY":"267.3992"},{"MEAN_ANOMALY":"251.6617","OBJECT_TYPE":"PAYLOAD","FILE":"3139397","MEAN_ELEMENT_THEORY":"SGP4","REV_AT_EPOCH":"6190","OBJECT_ID":"2020-057BB","SEMIMAJOR_AXIS":"6925.325","ARG_OF_PERICENTER":"108.4505","COUNTRY_CODE":"US","MEAN_MOTION_DDOT":"0.0000000000000","PERIOD":"95.592","PERIAPSIS":"546.343","RA_OF_ASC_NODE":"28.9295","APOAPSIS":"548.038","OBJECT_NAME":"STARLINK-1615","ELEMENT_SET_NO":"999","EPOCH":"2021-10-01T17:20:36.177216","BSTAR":"0.00016841000000","DECAY_DATE":null,"TIME_SYSTEM":"UTC","EPHEMERIS_TYPE":"0","TLE_LINE1":"1 46166U 20057BB  21274.72264094  .00002228  00000-0  16841-3 0  9994","INCLINATION":"53.0558","MEAN_MOTION":"15.06407550","REF_FRAME":"TEME","RCS_SIZE":"LARGE","CLASSIFICATION_TYPE":"U","GP_ID":"185960376","NORAD_CAT_ID":"46166","SITE":"AFETR","LAUNCH_DATE":"2020-08-18","MEAN_MOTION_DOT":"0.00002228","CENTER_NAME":"EARTH","ECCENTRICITY":"0.00012240","TLE_LINE2":"2 46166  53.0558  28.9295 0001224 108.4505 251.6617 15.06407550 61905"},{"OBJECT_TYPE":"PAYLOAD","MEAN_ANOMALY":"263.5915","FILE":"3139397","MEAN_ELEMENT_THEORY":"SGP4","PERIAPSIS":"546.324","RA_OF_ASC_NODE":"28.8717","REV_AT_EPOCH":"6190","ARG_OF_PERICENTER":"96.5222","SEMIMAJOR_AXIS":"6925.357","OBJECT_ID":"2020-057BC","PERIOD":"95.592","COUNTRY_CODE":"US","MEAN_MOTION_DDOT":"0.0000000000000","BSTAR":"-0.00005060800000","TIME_SYSTEM":"UTC","DECAY_DATE":null,"EPHEMERIS_TYPE":"0","TLE_LINE1":"1 46167U 20057BC  21274.73738996 -.00001035  00000-0 -50608-4 0  9990","INCLINATION":"53.0563","APOAPSIS":"548.120","OBJECT_NAME":"STARLINK-1626","ELEMENT_SET_NO":"999","EPOCH":"2021-10-01T17:41:50.492544","SITE":"AFETR","MEAN_MOTION_DOT":"-0.00001035","CENTER_NAME":"EARTH","LAUNCH_DATE":"2020-08-18","TLE_LINE2":"2 46167  53.0563  28.8717 0001297  96.5222 263.5915 15.06397185 61908","ECCENTRICITY":"0.00012970","MEAN_MOTION":"15.06397185","REF_FRAME":"TEME","RCS_SIZE":"LARGE","GP_ID":"185962383","NORAD_CAT_ID":"46167","CLASSIFICATION_TYPE":"U"},{"PERIAPSIS":"546.505","RA_OF_ASC_NODE":"339.5967","REV_AT_EPOCH":"6257","ARG_OF_PERICENTER":"102.4426","OBJECT_ID":"2020-057BD","SEMIMAJOR_AXIS":"6925.365","PERIOD":"95.592","MEAN_MOTION_DDOT":"0.0000000000000","COUNTRY_CODE":"US","OBJECT_TYPE":"PAYLOAD","MEAN_ANOMALY":"257.6680","FILE":"3139397","MEAN_ELEMENT_THEORY":"SGP4","SITE":"AFETR","CENTER_NAME":"EARTH","MEAN_MOTION_DOT":"0.00000632","LAUNCH_DATE":"2020-08-18","ECCENTRICITY":"0.00010460","TLE_LINE2":"2 46168  53.0549 339.5967 0001046 102.4426 257.6680 15.06394693 62575","MEAN_MOTION":"15.06394693","REF_FRAME":"TEME","RCS_SIZE":"LARGE","GP_ID":"185960635","NORAD_CAT_ID":"46168","CLASSIFICATION_TYPE":"U","BSTAR":"0.00006132000000","TIME_SYSTEM":"UTC","DECAY_DATE":null,"EPHEMERIS_TYPE":"0","INCLINATION":"53.0549","TLE_LINE1":"1 46168U 20057BD  21274.57518768  .00000632  00000-0  61320-4 0  9999","APOAPSIS":"547.954","OBJECT_NAME":"STARLINK-1627","ELEMENT_SET_NO":"999","EPOCH":"2021-10-01T13:48:16.215552"},{"RCS_SIZE":"LARGE","GP_ID":"185960885","NORAD_CAT_ID":"46169","CLASSIFICATION_TYPE":"U","MEAN_MOTION":"15.05584468","REF_FRAME":"TEME","ECCENTRICITY":"0.00012500","TLE_LINE2":"2 46169  53.0013  29.4082 0001250 100.7770 259.3358 15.05584468 61867","SITE":"AFETR","MEAN_MOTION_DOT":"0.00000384","CENTER_NAME":"EARTH","LAUNCH_DATE":"2020-08-18","OBJECT_NAME":"STARLINK-1628","ELEMENT_SET_NO":"999","EPOCH":"2021-10-01T14:46:54.358752","APOAPSIS":"550.580","EPHEMERIS_TYPE":"0","TLE_LINE1":"1 46169U 20057BE  21274.61590693  .00000384  00000-0  45523-4 0  9993","INCLINATION":"53.0013","BSTAR":"0.00004552300000","TIME_SYSTEM":"UTC","DECAY_DATE":null,"PERIOD":"95.644","MEAN_MOTION_DDOT":"0.0000000000000","COUNTRY_CODE":"US","REV_AT_EPOCH":"6186","ARG_OF_PERICENTER":"100.7770","SEMIMAJOR_AXIS":"6927.849","OBJECT_ID":"2020-057BE","RA_OF_ASC_NODE":"29.4082","PERIAPSIS":"548.848","FILE":"3139397","MEAN_ELEMENT_THEORY":"SGP4","MEAN_ANOMALY":"259.3358","OBJECT_TYPE":"PAYLOAD"},{"TIME_SYSTEM":"UTC","DECAY_DATE":null,"BSTAR":"0.00005303100000","INCLINATION":"53.0557","TLE_LINE1":"1 46171U 20057BG  21274.58073987  .00000509  00000-0  53031-4 0  9996","EPHEMERIS_TYPE":"0","APOAPSIS":"547.998","ELEMENT_SET_NO":"999","EPOCH":"2021-10-01T13:56:15.924768","OBJECT_NAME":"STARLINK-1633","MEAN_MOTION_DOT":"0.00000509","CENTER_NAME":"EARTH","LAUNCH_DATE":"2020-08-18","SITE":"AFETR","ECCENTRICITY":"0.00011200","TLE_LINE2":"2 46171  53.0557   9.5725 0001120  92.7793 267.3324 15.06397150 63413","MEAN_MOTION":"15.06397150","REF_FRAME":"TEME","GP_ID":"185959876","NORAD_CAT_ID":"46171","CLASSIFICATION_TYPE":"U","RCS_SIZE":"LARGE","MEAN_ANOMALY":"267.3324","OBJECT_TYPE":"PAYLOAD","MEAN_ELEMENT_THEORY":"SGP4","FILE":"3139397","PERIAPSIS":"546.447","RA_OF_ASC_NODE":"9.5725","ARG_OF_PERICENTER":"92.7793","SEMIMAJOR_AXIS":"6925.357","OBJECT_ID":"2020-057BG","REV_AT_EPOCH":"6341","PERIOD":"95.592","COUNTRY_CODE":"US","MEAN_MOTION_DDOT":"0.0000000000000"},{"PERIAPSIS":"546.440","RA_OF_ASC_NODE":"9.2150","REV_AT_EPOCH":"6342","ARG_OF_PERICENTER":"110.0587","SEMIMAJOR_AXIS":"6925.376","OBJECT_ID":"2020-057BH","PERIOD":"95.593","MEAN_MOTION_DDOT":"0.0000000000000","COUNTRY_CODE":"US","OBJECT_TYPE":"PAYLOAD","MEAN_ANOMALY":"250.0527","FILE":"3139397","MEAN_ELEMENT_THEORY":"SGP4","SITE":"AFETR","CENTER_NAME":"EARTH","MEAN_MOTION_DOT":"0.00000495","LAUNCH_DATE":"2020-08-18","ECCENTRICITY":"0.00011560","TLE_LINE2":"2 46172  53.0566   9.2150 0001156 110.0587 250.0527 15.06391055 63420","MEAN_MOTION":"15.06391055","REF_FRAME":"TEME","RCS_SIZE":"LARGE","GP_ID":"185961883","NORAD_CAT_ID":"46172","CLASSIFICATION_TYPE":"U","BSTAR":"0.00005209600000","TIME_SYSTEM":"UTC","DECAY_DATE":null,"EPHEMERIS_TYPE":"0","TLE_LINE1":"1 46172U 20057BH  21274.66182979  .00000495  00000-0  52096-4 0  9992","INCLINATION":"53.0566","APOAPSIS":"548.042","OBJECT_NAME":"STARLINK-1635","EPOCH":"2021-10-01T15:53:02.093856","ELEMENT_SET_NO":"999"},{"TLE_LINE2":"2 46173  53.0571  29.0031 0001538 117.6132 242.5013 15.06399350 61899","ECCENTRICITY":"0.00015380","SITE":"AFETR","MEAN_MOTION_DOT":"0.00000633","CENTER_NAME":"EARTH","LAUNCH_DATE":"2020-08-18","RCS_SIZE":"LARGE","NORAD_CAT_ID":"46173","GP_ID":"185961136","CLASSIFICATION_TYPE":"U","MEAN_MOTION":"15.06399350","REF_FRAME":"TEME","EPHEMERIS_TYPE":"0","TLE_LINE1":"1 46173U 20057BJ  21274.70789767  .00000633  00000-0  61394-4 0  9991","INCLINATION":"53.0571","BSTAR":"0.00006139400000","TIME_SYSTEM":"UTC","DECAY_DATE":null,"OBJECT_NAME":"STARLINK-1640","EPOCH":"2021-10-01T16:59:22.358688","ELEMENT_SET_NO":"999","APOAPSIS":"548.281","RA_OF_ASC_NODE":"29.0031","PERIAPSIS":"546.150","PERIOD":"95.592","COUNTRY_CODE":"US","MEAN_MOTION_DDOT":"0.0000000000000","REV_AT_EPOCH":"6189","ARG_OF_PERICENTER":"117.6132","OBJECT_ID":"2020-057BJ","SEMIMAJOR_AXIS":"6925.351","FILE":"3139397","MEAN_ELEMENT_THEORY":"SGP4","OBJECT_TYPE":"PAYLOAD","MEAN_ANOMALY":"242.5013"},{"COUNTRY_CODE":"US","MEAN_MOTION_DDOT":"0.0000000000000","PERIOD":"95.592","REV_AT_EPOCH":"6190","OBJECT_ID":"2020-057BK","SEMIMAJOR_AXIS":"6925.322","ARG_OF_PERICENTER":"98.9790","RA_OF_ASC_NODE":"28.6635","PERIAPSIS":"546.705","FILE":"3139397","MEAN_ELEMENT_THEORY":"SGP4","MEAN_ANOMALY":"261.1278","OBJECT_TYPE":"PAYLOAD","RCS_SIZE":"LARGE","CLASSIFICATION_TYPE":"U","GP_ID":"185961386","NORAD_CAT_ID":"46174","MEAN_MOTION":"15.06408509","REF_FRAME":"TEME","TLE_LINE2":"2 46174  53.0553  28.6635 0000697  98.9790 261.1278 15.06408509 61900","ECCENTRICITY":"0.00006970","SITE":"AFETR","LAUNCH_DATE":"2020-08-18","MEAN_MOTION_DOT":"0.00006897","CENTER_NAME":"EARTH","OBJECT_NAME":"STARLINK-1641","ELEMENT_SET_NO":"999","EPOCH":"2021-10-01T18:45:32.006016","APOAPSIS":"547.670","EPHEMERIS_TYPE":"0","INCLINATION":"53.0553","TLE_LINE1":"1 46174U 20057BK  21274.78162044  .00006897  00000-0  48132-3 0  9995","BSTAR":"0.00048132000000","DECAY_DATE":null,"TIME_SYSTEM":"UTC"}];
